NORAD_CAT_ID,OBJECT_NAME,OBJECT_TYPE,EPOCH,MEAN_MOTION,ECCENTRICITY,INCLINATION,RA_OF_ASC_NODE,ARG_OF_PERICENTER,MEAN_ANOMALY,BSTAR,MEAN_MOTION_DOT,MEAN_MOTION_DDOT,TLE_LINE0,TLE_LINE1,TLE_LINE2,SEMIMAJOR_AXIS,PERIOD,APOGEE,PERIGEE,DECAYED
52585.0,STARLINK-3906,PAYLOAD,2024-07-12 18:07:24,15.08847805,0.0001303,53.2173,314.7434,95.1558,264.9583,0.00012253,1.663e-05,0.0,0 STARLINK-3906,1 52585U 22051BB  24194.75514212  .00001663  00000-0  12253-3 0  9994,2 52585  53.2173 314.7434 0001303  95.1558 264.9583 15.08847805120336,6917.857,95.437,540.623,538.82,0.0
52585.0,STARLINK-3906,PAYLOAD,2024-07-13 00:28:57,15.0884101,0.0001082,53.2172,313.5507,92.7737,267.3379,0.0001,1.304e-05,0.0,0 STARLINK-3906,1 52585U 22051BB  24195.02010683  .00001304  00000-0  10000-3 0  9998,2 52585  53.2172 313.5507 0001082  92.7737 267.3379 15.08841010120375,6917.877,95.437,540.491,538.994,0.0
52585.0,STARLINK-3906,PAYLOAD,2024-07-13 14:47:24,15.08850164,0.000138,53.2185,310.8785,99.4501,260.6647,0.00016928,2.408e-05,0.0,0 STARLINK-3906,1 52585U 22051BB  24195.61626074  .00002408  00000-0  16928-3 0  9991,2 52585  53.2185 310.8785 0001380  99.4501 260.6647 15.08850164120397,6917.849,95.437,540.669,538.76,0.0
52585.0,STARLINK-3906,PAYLOAD,2024-07-14 00:19:42,15.08872248,0.0001239,53.2165,309.0911,89.8312,270.2822,0.0004931,7.575e-05,0.0,0 STARLINK-3906,1 52585U 22051BB  24196.01368672  .00007575  00000-0  49310-3 0  9994,2 52585  53.2165 309.0911 0001239  89.8312 270.2822 15.08872248120526,6917.782,95.436,540.504,538.79,0.0
52585.0,STARLINK-3906,PAYLOAD,2024-07-14 13:02:48,15.08845114,0.000113,53.2169,306.7112,103.1901,256.9218,-4.4807e-05,-1.001e-05,0.0,0 STARLINK-3906,1 52585U 22051BB  24196.54361512 -.00001001  00000-0 -44807-4 0  9995,2 52585  53.2169 306.7112 0001130 103.1901 256.9218 15.08845114120602,6917.865,95.437,540.511,538.948,0.0
52585.0,STARLINK-3906,PAYLOAD,2024-07-14 14:38:12,15.08831631,0.0001382,53.2166,306.415,68.5484,291.5656,-0.000206,-3.564e-05,0.0,0 STARLINK-3906,1 52585U 22051BB  24196.60986443 -.00003564  00000-0 -20600-3 0  9998,2 52585  53.2166 306.4150 0001382  68.5484 291.5656 15.08831631120540,6917.906,95.438,540.727,538.815,0.0
52585.0,STARLINK-3906,PAYLOAD,2024-07-14 17:48:59,15.08831549,0.0001355,53.2175,305.8203,71.7708,288.3432,-6.5908e-05,-1.336e-05,0.0,0 STARLINK-3906,1 52585U 22051BB  24196.74235236 -.00001336  00000-0 -65908-4 0  9996,2 52585  53.2175 305.8203 0001355  71.7708 288.3432 15.08831549120631,6917.906,95.438,540.709,538.834,0.0
52585.0,STARLINK-3906,PAYLOAD,2024-07-15 14:28:59,15.08845914,0.0001213,53.218,301.9569,98.012,262.1009,2.9664e-05,1.84e-06,0.0,0 STARLINK-3906,1 52585U 22051BB  24197.60346532  .00000184  00000-0  29664-4 0  9991,2 52585  53.2180 301.9569 0001213  98.0120 262.1009 15.08845914120699,6917.862,95.437,540.566,538.888,0.0
52585.0,STARLINK-3906,PAYLOAD,2024-07-16 14:19:46,15.08851164,0.0001187,53.2156,297.4936,86.5713,273.5415,0.00051786,7.966e-05,0.0,0 STARLINK-3906,1 52585U 22051BB  24198.59706157  .00007966  00000-0  51786-3 0  9997,2 52585  53.2156 297.4936 0001187  86.5713 273.5415 15.08851164120847,6917.846,95.437,540.532,538.89,0.0
52585.0,STARLINK-3906,PAYLOAD,2024-07-17 12:35:10,15.08843322,0.0001292,53.2163,293.3328,98.1044,262.0095,0.00011737,1.581e-05,0.0,0 STARLINK-3906,1 52585U 22051BB  24199.52442968  .00001581  00000-0  11737-3 0  9997,2 52585  53.2163 293.3328 0001292  98.1044 262.0095 15.08843322121056,6917.87,95.437,540.629,538.841,0.0
52585.0,STARLINK-3906,PAYLOAD,2024-07-18 12:25:57,15.08849644,0.000166,53.2174,288.8685,92.2021,267.9162,-9.8567e-06,-4.45e-06,0.0,0 STARLINK-3906,1 52585U 22051BB  24200.51802532 -.00000445  00000-0 -98567-5 0  9994,2 52585  53.2174 288.8685 0001660  92.2021 267.9162 15.08849644121133,6917.851,95.437,540.864,538.568,0.0
52585.0,STARLINK-3906,PAYLOAD,2024-07-19 05:55:12,15.0883239,0.0001787,53.217,285.5974,108.0348,252.0839,0.00016196,2.29e-05,0.0,0 STARLINK-3906,1 52585U 22051BB  24201.24667582  .00002290  00000-0  16196-3 0  9993,2 52585  53.2170 285.5974 0001787 108.0348 252.0839 15.08832390121318,6917.904,95.438,541.005,538.532,0.0
52585.0,STARLINK-3906,PAYLOAD,2024-07-19 12:16:44,15.08844402,0.0001419,53.2176,284.4124,97.6161,262.4992,1.7292e-05,-1.3e-07,0.0,0 STARLINK-3906,1 52585U 22051BB  24201.51163099 -.00000013  00000-0  17292-4 0  9998,2 52585  53.2176 284.4124 0001419  97.6161 262.4992 15.08844402121353,6917.867,95.437,540.714,538.75,0.0
52585.0,STARLINK-3906,PAYLOAD,2024-07-20 05:45:59,15.08836411,0.0001634,53.2173,281.1405,94.5194,265.5985,4.6916e-05,4.59e-06,0.0,0 STARLINK-3906,1 52585U 22051BB  24202.24027675  .00000459  00000-0  46916-4 0  9996,2 52585  53.2173 281.1405 0001634  94.5194 265.5985 15.08836411121466,6917.891,95.438,540.887,538.626,0.0
52585.0,STARLINK-3906,PAYLOAD,2024-07-20 12:07:32,15.08846061,0.0001434,53.2179,279.9567,78.1991,281.9162,7.7982e-05,9.54e-06,0.0,0 STARLINK-3906,1 52585U 22051BB  24202.50523194  .00000954  00000-0  77982-4 0  9999,2 52585  53.2179 279.9567 0001434  78.1991 281.9162 15.08846061121503,6917.862,95.437,540.719,538.735,0.0
52585.0,STARLINK-3906,PAYLOAD,2024-07-20 21:39:51,15.08838282,0.0001492,53.2163,278.1655,78.7584,281.3576,-1.6767e-05,-5.55e-06,0.0,0 STARLINK-3906,1 52585U 22051BB  24202.90267773 -.00000555  00000-0 -16767-4 0  9994,2 52585  53.2163 278.1655 0001492  78.7584 281.3576 15.08838282121490,6917.886,95.438,540.783,538.718,0.0
52585.0,STARLINK-3906,PAYLOAD,2024-07-21 10:22:57,15.08827703,0.0001555,53.2179,275.7908,89.9423,270.1747,1.7538e-05,-9e-08,0.0,0 STARLINK-3906,1 52585U 22051BB  24203.43260802 -.00000009  00000-0  17538-4 0  9999,2 52585  53.2179 275.7908 0001555  89.9423 270.1747 15.08827703121646,6917.918,95.438,540.859,538.707,0.0
52585.0,STARLINK-3906,PAYLOAD,2024-07-22 10:13:43,15.0884067,0.0001624,53.2181,271.3323,101.0604,259.0571,8.908e-05,1.13e-05,0.0,0 STARLINK-3906,1 52585U 22051BB  24204.42620161  .00001130  00000-0  89080-4 0  9993,2 52585  53.2181 271.3323 0001624 101.0604 259.0571 15.08840670121791,6917.878,95.438,540.867,538.62,0.0
52585.0,STARLINK-3906,PAYLOAD,2024-07-22 13:24:29,15.08849245,0.000152,53.2178,270.7331,84.3835,275.7331,0.00013418,1.849e-05,0.0,0 STARLINK-3906,1 52585U 22051BB  24204.55867571  .00001849  00000-0  13418-3 0  9993,2 52585  53.2178 270.7331 0001520  84.3835 275.7331 15.08849245121744,6917.852,95.437,540.769,538.666,0.0
52585.0,STARLINK-3906,PAYLOAD,2024-07-23 13:15:16,15.08847214,0.0001528,53.2178,266.2654,86.4434,273.6732,0.00013236,1.82e-05,0.0,0 STARLINK-3906,1 52585U 22051BB  24205.55227729  .00001820  00000-0  13236-3 0  9996,2 52585  53.2178 266.2654 0001528  86.4434 273.6732 15.08847214121968,6917.858,95.437,540.78,538.666,0.0
52585.0,STARLINK-3906,PAYLOAD,2024-07-24 09:55:18,15.08838963,0.00021,53.218,262.4024,135.011,225.1053,-6.7522e-05,-1.363e-05,0.0,0 STARLINK-3906,1 52585U 22051BB  24206.41340726 -.00001363  00000-0 -67522-4 0  9997,2 52585  53.2180 262.4024 0002100 135.0110 225.1053 15.08838963122093,6917.884,95.438,541.201,538.296,0.0
52585.0,STARLINK-3906,PAYLOAD,2024-07-25 03:24:32,15.08843322,0.0002066,53.218,259.1272,137.349,222.7662,-4.8242e-06,-3.65e-06,0.0,0 STARLINK-3906,1 52585U 22051BB  24207.14204426 -.00000365  00000-0 -48242-5 0  9994,2 52585  53.2180 259.1272 0002066 137.3490 222.7662 15.08843322122137,6917.87,95.437,541.164,538.306,0.0
52585.0,STARLINK-3906,PAYLOAD,2024-07-25 11:21:27,15.08857622,0.0001391,53.2164,257.6487,107.0737,253.0408,5.838e-05,6.42e-06,0.0,0 STARLINK-3906,1 52585U 22051BB  24207.47323465  .00000642  00000-0  58380-4 0  9994,2 52585  53.2164 257.6487 0001391 107.0737 253.0408 15.08857622122254,6917.827,95.436,540.654,538.729,0.0
52585.0,STARLINK-3906,PAYLOAD,2024-07-25 20:53:46,15.08841959,0.0001476,53.2164,255.8659,90.0659,270.0502,0.00022964,3.369e-05,0.0,0 STARLINK-3906,1 52585U 22051BB  24207.87068180  .00003369  00000-0  22964-3 0  9995,2 52585  53.2164 255.8659 0001476  90.0659 270.0502 15.08841959122310,6917.874,95.437,540.76,538.718,0.0
52585.0,STARLINK-3906,PAYLOAD,2024-07-26 11:12:15,15.0883185,0.0001491,53.2159,253.1887,96.1714,263.9448,0.00034027,5.13e-05,0.0,0 STARLINK-3906,1 52585U 22051BB  24208.46684458  .00005130  00000-0  34027-3 0  9994,2 52585  53.2159 253.1887 0001491  96.1714 263.9448 15.08831850122403,6917.905,95.438,540.802,538.739,0.0
52585.0,STARLINK-3906,PAYLOAD,2024-07-27 06:16:52,15.08846728,0.0001544,53.2155,249.6183,100.2536,259.863,1.5386e-05,-4.3e-07,0.0,0 STARLINK-3906,1 52585U 22051BB  24209.26171986 -.00000043  00000-0  15386-4 0  9997,2 52585  53.2155 249.6183 0001544 100.2536 259.8630 15.08846728122458,6917.86,95.437,540.793,538.657,0.0
52585.0,STARLINK-3906,PAYLOAD,2024-07-27 11:03:01,15.08848103,0.0001518,53.2161,248.7252,104.953,255.1631,-2.4323e-05,-6.75e-06,0.0,0 STARLINK-3906,1 52585U 22051BB  24209.46043821 -.00000675  00000-0 -24323-4 0  9998,2 52585  53.2161 248.7252 0001518 104.9530 255.1631 15.08848103122480,6917.856,95.437,540.771,538.67,0.0
52585.0,STARLINK-3906,PAYLOAD,2024-07-28 12:29:12,15.08839488,0.000136,53.2157,243.9695,90.3306,269.7842,-2.8034e-05,-7.34e-06,0.0,0 STARLINK-3906,1 52585U 22051BB  24210.52028478 -.00000734  00000-0 -28034-4 0  9997,2 52585  53.2157 243.9695 0001360  90.3306 269.7842 15.08839488122714,6917.882,95.438,540.688,538.806,0.0
52585.0,STARLINK-3906,PAYLOAD,2024-07-29 10:44:36,15.08837246,0.0001382,53.2154,239.8065,88.4887,271.6264,3.2689e-05,2.32e-06,0.0,0 STARLINK-3906,1 52585U 22051BB  24211.44764698  .00000232  00000-0  32689-4 0  9992,2 52585  53.2154 239.8065 0001382  88.4887 271.6264 15.08837246122789,6917.889,95.438,540.71,538.798,0.0
52585.0,STARLINK-3906,PAYLOAD,2024-07-29 18:41:32,15.08836163,0.0001295,53.2145,238.3187,84.7822,275.3318,5.7464e-05,6.27e-06,0.0,0 STARLINK-3906,1 52585U 22051BB  24211.77884791  .00000627  00000-0  57464-4 0  9991,2 52585  53.2145 238.3187 0001295  84.7822 275.3318 15.08836163122901,6917.892,95.438,540.653,538.861,0.0
